     2              NAVIGATION DATA                         RINEX VERSION / TYPE
CCRINEXN V1.6.0 UX  CDDIS               17-JAN-26 23:31     PGM / RUN BY / DATE 
IGS BROADCAST EPHEMERIS FILE                                COMMENT             
    0.1676D-07 -0.7451D-08 -0.5960D-07  0.1192D-06          ION ALPHA           
    0.1311D+06 -0.1475D+06  0.6554D+05 -0.1311D+06          ION BETA            
    0.000000000000D+00-0.621724893790D-14    61440     2402 DELTA-UTC: A0,A1,T,W
    18                                                      LEAP SECONDS        
                                                            END OF HEADER       
25 26  1 16 22  0  0.0 0.449557788670D-03-0.238742359215D-11 0.000000000000D+00
    0.580000000000D+02-0.534375000000D+01 0.530664961469D-08-0.762871940153D+00
   -0.391155481338D-07 0.129408045905D-01 0.596791505814D-05 0.515373281097D+04
    0.511200000000D+06-0.391155481338D-07 0.181904385203D+01 0.203028321266D-06
    0.947095009257D+00 0.262343750000D+03 0.114999085543D+01-0.837142013182D-08
   -0.242510101519D-09 0.100000000000D+01 0.240100000000D+04 0.000000000000D+00
    0.200000000000D+01 0.000000000000D+00 0.558793500000D-08 0.580000000000D+02
    0.506640000000D+06 0.400000000000D+01 0.000000000000D+00 0.000000000000D+00
26 26  1 16 22  0  0.0-0.312393531203D-03-0.602540239925D-11 0.000000000000D+00
    0.250000000000D+02-0.106250000000D+02 0.562666294452D-08-0.159366194703D+01
   -0.650063157082D-06 0.109721380286D-01 0.479444861412D-05 0.515368469429D+04
    0.511200000000D+06 0.158324837685D-06 0.174532654543D+01-0.968575477600D-07
    0.927840810031D+00 0.262781250000D+03 0.701406238922D+00-0.837320592049D-08
   -0.825034365993D-10 0.100000000000D+01 0.240100000000D+04 0.000000000000D+00
    0.200000000000D+01 0.000000000000D+00 0.651925802231D-08 0.250000000000D+02
    0.504018000000D+06 0.400000000000D+01 0.000000000000D+00 0.000000000000D+00
27 26  1 16 22  0  0.0-0.200564973056D-04-0.773070496507D-11 0.000000000000D+00
    0.350000000000D+02 0.619375000000D+02 0.440732643998D-08 0.294698737191D+01
    0.306963920593D-05 0.141641375376D-01 0.108163803816D-04 0.515366922379D+04
    0.511200000000D+06-0.204890966415D-07 0.287461346883D+01-0.191852450371D-06
    0.953589600423D+00 0.165593750000D+03 0.865839714431D+00-0.755495755145D-08
   -0.358943522867D-09 0.100000000000D+01 0.240100000000D+04 0.000000000000D+00
    0.200000000000D+01 0.000000000000D+00 0.232830600000D-08 0.350000000000D+02
    0.504030000000D+06 0.400000000000D+01 0.000000000000D+00 0.000000000000D+00
28 26  1 16 22  0  0.0-0.610283110291D-03 0.534328137292D-11 0.000000000000D+00
    0.920000000000D+02 0.362500000000D+01 0.444339937113D-08 0.334596282421D-02
    0.311061739922D-06 0.403481884859D-03 0.793486833572D-05 0.515376196671D+04
    0.511200000000D+06 0.335276126862D-07 0.768162315672D+00-0.335276126862D-07
    0.961796285579D+00 0.225906250000D+03 0.371933622265D+00-0.781032533140D-08
    0.623240246172D-09 0.100000000000D+01 0.240100000000D+04 0.000000000000D+00
    0.200000000000D+01 0.000000000000D+00-0.931322600000D-08 0.860000000000D+03
    0.505920000000D+06 0.400000000000D+01 0.000000000000D+00 0.000000000000D+00
29 26  1 16 22  0  0.0-0.391830690205D-03 0.636646291241D-11 0.000000000000D+00
    0.340000000000D+02 0.907187500000D+02 0.431053669401D-08 0.282100309348D+01
    0.472925603390D-05 0.325032055844D-02 0.105425715447D-04 0.515378945160D+04
    0.511200000000D+06-0.707805156708D-07 0.296351892991D+01 0.670552253723D-07
    0.962885280334D+00 0.178468750000D+03 0.275292142716D+01-0.769532054099D-08
   -0.284297556420D-09 0.100000000000D+01 0.240100000000D+04 0.000000000000D+00
    0.200000000000D+01 0.000000000000D+00-0.977888703346D-08 0.340000000000D+02
    0.504018000000D+06 0.400000000000D+01 0.000000000000D+00 0.000000000000D+00
30 26  1 16 22  0  0.0 0.900574959814D-04 0.123918653117D-10 0.000000000000D+00
    0.570000000000D+02 0.120000000000D+02 0.521378860379D-08-0.101203549203D+00
    0.724568963051D-06 0.787684437819D-02 0.723451375961D-05 0.515377564049D+04
    0.511200000000D+06 0.130385160446D-07 0.786061190055D+00 0.143423676491D-06
    0.936068521708D+00 0.227875000000D+03-0.234827853367D+01-0.832391815317D-08
    0.586810157284D-09 0.100000000000D+01 0.240100000000D+04 0.000000000000D+00
    0.200000000000D+01 0.000000000000D+00 0.419095158577D-08 0.570000000000D+02
    0.504018000000D+06 0.400000000000D+01 0.000000000000D+00 0.000000000000D+00
31 26  1 16 22  0  0.0-0.172249507159D-03 0.204636307899D-11 0.000000000000D+00
    0.140000000000D+02 0.114687500000D+02 0.470198157069D-08-0.106092740651D+01
    0.948086380959D-06 0.108688817127D-01 0.726431608200D-05 0.515375895119D+04
    0.511200000000D+06 0.141561031342D-06 0.818438931861D+00 0.154599547386D-06
    0.954571423263D+00 0.231875000000D+03 0.931258246644D+00-0.801069082028D-08
    0.617168564691D-09 0.100000000000D+01 0.240100000000D+04 0.000000000000D+00
    0.200000000000D+01 0.000000000000D+00-0.135041800000D-07 0.140000000000D+02
    0.510000000000D+06 0.400000000000D+01 0.000000000000D+00 0.000000000000D+00
 2 26  1 16 23 59 44.0 0.181905925274D-04 0.818545231596D-11 0.000000000000D+00
    0.100000000000D+01 0.138031250000D+03 0.435589572625D-08-0.207498068389D+01
    0.741146504879D-05 0.169801242882D-01 0.503286719322D-05 0.515361571312D+04
    0.518384000000D+06-0.303611159325D-06-0.243426979756D+01 0.322237610817D-06
    0.963923969725D+00 0.288375000000D+03-0.848558328992D+00-0.796640326124D-08
    0.201794119821D-09 0.100000000000D+01 0.240100000000D+04 0.000000000000D+00
    0.200000000000D+01 0.000000000000D+00-0.176951300000D-07 0.100000000000D+01
    0.514290000000D+06 0.400000000000D+01 0.000000000000D+00 0.000000000000D+00
19 26  1 16 23 59 44.0 0.685904640704D-03 0.181898940355D-11 0.000000000000D+00
    0.330000000000D+02 0.752500000000D+02 0.436875340469D-08-0.627256075345D+00
    0.393204391003D-05 0.109739709878D-01 0.992603600025D-05 0.515371208954D+04
    0.518384000000D+06 0.117346644402D-06 0.299077897319D+01-0.173225998878D-06
    0.959443920622D+00 0.189156250000D+03 0.291599120116D+01-0.784675542029D-08
   -0.189293599124D-09 0.100000000000D+01 0.240100000000D+04 0.000000000000D+00
    0.200000000000D+01 0.000000000000D+00-0.153668224812D-07 0.330000000000D+02
    0.513426000000D+06 0.400000000000D+01 0.000000000000D+00 0.000000000000D+00
27 26  1 16 23 59 44.0-0.201123766601D-04-0.773070496507D-11 0.000000000000D+00
    0.520000000000D+02 0.646875000000D+02 0.441304096373D-08-0.228836487880D+01
    0.309012830257D-05 0.141640494112D-01 0.106189399958D-04 0.515366921997D+04
    0.518384000000D+06 0.158324837685D-06 0.287455809592D+01-0.102445483208D-06
    0.953587332900D+00 0.167843750000D+03 0.865856017190D+00-0.762281752095D-08
   -0.214651798252D-09 0.100000000000D+01 0.240100000000D+04 0.000000000000D+00
    0.200000000000D+01 0.000000000000D+00 0.232830643654D-08 0.520000000000D+02
    0.513468000000D+06 0.400000000000D+01 0.000000000000D+00 0.000000000000D+00
